start=new Date('2022-06-16T00:00:00.000Z').valueOf();
sats=[{"TIME_SYSTEM":"UTC","TLE_LINE2":"2 45741  53.0538 236.3754 0001525  65.4248 294.6900 15.06388986111848","SEMIMAJOR_AXIS":"6925.382","EPHEMERIS_TYPE":"0","ELEMENT_SET_NO":"999","GP_ID":"206180646","NORAD_CAT_ID":"45741","SITE":"AFETR","MEAN_MOTION_DOT":"-0.00001641","APOAPSIS":"548.303","MEAN_MOTION":"15.06388986","COUNTRY_CODE":"US","MEAN_ANOMALY":"294.6900","MEAN_MOTION_DDOT":"0.0000000000000","RCS_SIZE":"LARGE","TLE_LINE1":"1 45741U 20038M   22166.46675511 -.00001641  00000-0 -91291-4 0  9996","PERIAPSIS":"546.191","FILE":"3496559","OBJECT_ID":"2020-038M","REV_AT_EPOCH":"11184","EPOCH":"2022-06-15T11:12:07.641504","OBJECT_TYPE":"PAYLOAD","ECCENTRICITY":"0.00015250","PERIOD":"95.593","DECAY_DATE":null,"BSTAR":"-0.00009129100000","LAUNCH_DATE":"2020-06-13","INCLINATION":"53.0538","MEAN_ELEMENT_THEORY":"SGP4","RA_OF_ASC_NODE":"236.3754","CLASSIFICATION_TYPE":"U","ARG_OF_PERICENTER":"65.4248","REF_FRAME":"TEME","CENTER_NAME":"EARTH","OBJECT_NAME":"STARLINK-1480"},{"RCS_SIZE":"LARGE","TLE_LINE1":"1 45742U 20038N   22166.45938371 -.00001150  00000-0 -58345-4 0  9990","MEAN_MOTION_DOT":"-0.00001150","APOAPSIS":"548.364","MEAN_MOTION":"15.06387572","COUNTRY_CODE":"US","MEAN_ANOMALY":"301.1633","MEAN_MOTION_DDOT":"0.0000000000000","NORAD_CAT_ID":"45742","SITE":"AFETR","ELEMENT_SET_NO":"999","GP_ID":"206180664","SEMIMAJOR_AXIS":"6925.387","EPHEMERIS_TYPE":"0","TIME_SYSTEM":"UTC","TLE_LINE2":"2 45742  53.0544 236.3906 0001606  58.9513 301.1633 15.06387572111833","ARG_OF_PERICENTER":"58.9513","REF_FRAME":"TEME","CENTER_NAME":"EARTH","OBJECT_NAME":"STARLINK-1481","RA_OF_ASC_NODE":"236.3906","CLASSIFICATION_TYPE":"U","INCLINATION":"53.0544","MEAN_ELEMENT_THEORY":"SGP4","DECAY_DATE":null,"LAUNCH_DATE":"2020-06-13","BSTAR":"-0.00005834500000","PERIOD":"95.593","FILE":"3496577","OBJECT_ID":"2020-038N","EPOCH":"2022-06-15T11:01:30.752544","REV_AT_EPOCH":"11183","ECCENTRICITY":"0.00016060","OBJECT_TYPE":"PAYLOAD","PERIAPSIS":"546.139"},{"REF_FRAME":"TEME","ARG_OF_PERICENTER":"33.3368","OBJECT_NAME":"STARLINK-1483","CENTER_NAME":"EARTH","RA_OF_ASC_NODE":"236.2394","CLASSIFICATION_TYPE":"U","INCLINATION":"53.0601","MEAN_ELEMENT_THEORY":"SGP4","DECAY_DATE":null,"BSTAR":"-0.00008980100000","LAUNCH_DATE":"2020-06-13","PERIOD":"95.593","EPOCH":"2022-06-15T11:26:41.259552","REV_AT_EPOCH":"11072","OBJECT_ID":"2020-038P","FILE":"3496794","OBJECT_TYPE":"PAYLOAD","ECCENTRICITY":"0.00021750","PERIAPSIS":"545.735","RCS_SIZE":"LARGE","TLE_LINE1":"1 45743U 20038P   22166.47686643 -.00001619  00000-0 -89801-4 0  9996","MEAN_MOTION":"15.06391035","APOAPSIS":"548.747","MEAN_MOTION_DOT":"-0.00001619","MEAN_MOTION_DDOT":"0.0000000000000","COUNTRY_CODE":"US","MEAN_ANOMALY":"326.7758","SITE":"AFETR","NORAD_CAT_ID":"45743","ELEMENT_SET_NO":"999","GP_ID":"206206007","SEMIMAJOR_AXIS":"6925.376","EPHEMERIS_TYPE":"0","TLE_LINE2":"2 45743  53.0601 236.2394 0002175  33.3368 326.7758 15.06391035110722","TIME_SYSTEM":"UTC"},{"SEMIMAJOR_AXIS":"6925.390","EPHEMERIS_TYPE":"0","TLE_LINE2":"2 45744  53.0552 236.4411 0001575  58.0261 302.0881 15.06386333110728","TIME_SYSTEM":"UTC","SITE":"AFETR","NORAD_CAT_ID":"45744","ELEMENT_SET_NO":"999","GP_ID":"206205754","RCS_SIZE":"LARGE","TLE_LINE1":"1 45744U 20038Q   22166.44833260 -.00002616  00000-0 -15682-3 0  9996","MEAN_MOTION":"15.06386333","MEAN_MOTION_DOT":"-0.00002616","APOAPSIS":"548.346","MEAN_MOTION_DDOT":"0.0000000000000","MEAN_ANOMALY":"302.0881","COUNTRY_CODE":"US","PERIAPSIS":"546.165","PERIOD":"95.593","REV_AT_EPOCH":"11072","EPOCH":"2022-06-15T10:45:35.936640","OBJECT_ID":"2020-038Q","FILE":"3496794","ECCENTRICITY":"0.00015750","OBJECT_TYPE":"PAYLOAD","INCLINATION":"53.0552","MEAN_ELEMENT_THEORY":"SGP4","DECAY_DATE":null,"BSTAR":"-0.00015682000000","LAUNCH_DATE":"2020-06-13","REF_FRAME":"TEME","ARG_OF_PERICENTER":"58.0261","OBJECT_NAME":"STARLINK-1500","CENTER_NAME":"EARTH","RA_OF_ASC_NODE":"236.4411","CLASSIFICATION_TYPE":"U"},{"PERIAPSIS":"546.265","REV_AT_EPOCH":"11164","EPOCH":"2022-06-15T10:29:40.123680","OBJECT_ID":"2020-038R","FILE":"3496593","OBJECT_TYPE":"PAYLOAD","ECCENTRICITY":"0.00014570","PERIOD":"95.593","DECAY_DATE":null,"LAUNCH_DATE":"2020-06-13","BSTAR":"-0.00010339000000","INCLINATION":"53.0537","MEAN_ELEMENT_THEORY":"SGP4","RA_OF_ASC_NODE":"236.4917","CLASSIFICATION_TYPE":"U","REF_FRAME":"TEME","ARG_OF_PERICENTER":"77.3249","OBJECT_NAME":"STARLINK-1503","CENTER_NAME":"EARTH","TLE_LINE2":"2 45745  53.0537 236.4917 0001457  77.3249 282.7903 15.06380420111644","TIME_SYSTEM":"UTC","SEMIMAJOR_AXIS":"6925.409","EPHEMERIS_TYPE":"0","ELEMENT_SET_NO":"999","GP_ID":"206180986","NORAD_CAT_ID":"45745","SITE":"AFETR","MEAN_MOTION":"15.06380420","APOAPSIS":"548.283","MEAN_MOTION_DOT":"-0.00001820","MEAN_MOTION_DDOT":"0.0000000000000","COUNTRY_CODE":"US","MEAN_ANOMALY":"282.7903","RCS_SIZE":"LARGE","TLE_LINE1":"1 45745U 20038R   22166.43726995 -.00001820  00000-0 -10339-3 0  9992"},{"MEAN_ELEMENT_THEORY":"SGP4","INCLINATION":"53.0557","LAUNCH_DATE":"2020-06-13","BSTAR":"-0.00006880100000","DECAY_DATE":null,"OBJECT_NAME":"STARLINK-1504","CENTER_NAME":"EARTH","REF_FRAME":"TEME","ARG_OF_PERICENTER":"47.7987","CLASSIFICATION_TYPE":"U","RA_OF_ASC_NODE":"236.4288","PERIAPSIS":"546.066","PERIOD":"95.593","ECCENTRICITY":"0.00017200","OBJECT_TYPE":"PAYLOAD","EPOCH":"2022-06-15T10:50:54.078720","REV_AT_EPOCH":"11164","FILE":"3496593","OBJECT_ID":"2020-038S","TLE_LINE1":"1 45746U 20038S   22166.45201480 -.00001306  00000-0 -68801-4 0  9999","RCS_SIZE":"LARGE","MEAN_MOTION_DDOT":"0.0000000000000","MEAN_ANOMALY":"312.3148","COUNTRY_CODE":"US","MEAN_MOTION":"15.06385857","APOAPSIS":"548.448","MEAN_MOTION_DOT":"-0.00001306","EPHEMERIS_TYPE":"0","SEMIMAJOR_AXIS":"6925.392","TIME_SYSTEM":"UTC","TLE_LINE2":"2 45746  53.0557 236.4288 0001720  47.7987 312.3148 15.06385857111641","NORAD_CAT_ID":"45746","SITE":"AFETR","GP_ID":"206181482","ELEMENT_SET_NO":"999"},{"MEAN_MOTION_DDOT":"0.0000000000000","MEAN_ANOMALY":"302.6892","COUNTRY_CODE":"US","MEAN_MOTION":"15.06380680","MEAN_MOTION_DOT":"-0.00001644","APOAPSIS":"548.311","TLE_LINE1":"1 45747U 20038T   22166.45570064 -.00001644  00000-0 -91547-4 0  9995","RCS_SIZE":"LARGE","TIME_SYSTEM":"UTC","TLE_LINE2":"2 45747  53.0544 236.4170 0001499  57.4241 302.6892 15.06380680111649","EPHEMERIS_TYPE":"0","SEMIMAJOR_AXIS":"6925.408","GP_ID":"206181488","ELEMENT_SET_NO":"999","SITE":"AFETR","NORAD_CAT_ID":"45747","LAUNCH_DATE":"2020-06-13","BSTAR":"-0.00009154700000","DECAY_DATE":null,"MEAN_ELEMENT_THEORY":"SGP4","INCLINATION":"53.0544","CLASSIFICATION_TYPE":"U","RA_OF_ASC_NODE":"236.4170","OBJECT_NAME":"STARLINK-1506","CENTER_NAME":"EARTH","REF_FRAME":"TEME","ARG_OF_PERICENTER":"57.4241","PERIAPSIS":"546.235","OBJECT_TYPE":"PAYLOAD","ECCENTRICITY":"0.00014990","REV_AT_EPOCH":"11164","EPOCH":"2022-06-15T10:56:12.535296","OBJECT_ID":"2020-038T","FILE":"3496593","PERIOD":"95.593"},{"TIME_SYSTEM":"UTC","TLE_LINE2":"2 45748  53.0557 236.4616 0001303  75.7031 284.4103 15.06392335111656","EPHEMERIS_TYPE":"0","SEMIMAJOR_AXIS":"6925.372","GP_ID":"206181474","ELEMENT_SET_NO":"999","SITE":"AFETR","NORAD_CAT_ID":"45748","MEAN_MOTION_DDOT":"0.0000000000000","COUNTRY_CODE":"US","MEAN_ANOMALY":"284.4103","MEAN_MOTION":"15.06392335","APOAPSIS":"548.139","MEAN_MOTION_DOT":"-0.00000746","TLE_LINE1":"1 45748U 20038U   22166.44369043 -.00000746  00000-0 -31212-4 0  9993","RCS_SIZE":"LARGE","PERIAPSIS":"546.335","OBJECT_TYPE":"PAYLOAD","ECCENTRICITY":"0.00013030","REV_AT_EPOCH":"11165","EPOCH":"2022-06-15T10:38:54.853152","OBJECT_ID":"2020-038U","FILE":"3496593","PERIOD":"95.593","LAUNCH_DATE":"2020-06-13","BSTAR":"-0.00003121200000","DECAY_DATE":null,"MEAN_ELEMENT_THEORY":"SGP4","INCLINATION":"53.0557","CLASSIFICATION_TYPE":"U","RA_OF_ASC_NODE":"236.4616","OBJECT_NAME":"STARLINK-1507","CENTER_NAME":"EARTH","REF_FRAME":"TEME","ARG_OF_PERICENTER":"75.7031"},{"CENTER_NAME":"EARTH","OBJECT_NAME":"STARLINK-1391","ARG_OF_PERICENTER":"59.5682","REF_FRAME":"TEME","CLASSIFICATION_TYPE":"U","RA_OF_ASC_NODE":"214.5546","MEAN_ELEMENT_THEORY":"SGP4","INCLINATION":"53.0536","LAUNCH_DATE":"2020-06-13","BSTAR":"0.00001891400000","DECAY_DATE":null,"PERIOD":"95.592","OBJECT_TYPE":"PAYLOAD","ECCENTRICITY":"0.00017630","OBJECT_ID":"2020-038W","FILE":"3496999","EPOCH":"2022-06-15T20:53:18.234816","REV_AT_EPOCH":"11107","PERIAPSIS":"545.981","TLE_LINE1":"1 45750U 20038W   22166.87034994  .00000000  00000-0  18914-4 0  9992","RCS_SIZE":"LARGE","COUNTRY_CODE":"US","MEAN_ANOMALY":"300.5481","MEAN_MOTION_DDOT":"0.0000000000000","APOAPSIS":"548.423","MEAN_MOTION_DOT":"0.00000000","MEAN_MOTION":"15.06403737","SITE":"AFETR","NORAD_CAT_ID":"45750","GP_ID":"206234701","ELEMENT_SET_NO":"999","EPHEMERIS_TYPE":"0","SEMIMAJOR_AXIS":"6925.337","TLE_LINE2":"2 45750  53.0536 214.5546 0001763  59.5682 300.5481 15.06403737111071","TIME_SYSTEM":"UTC"},{"TLE_LINE1":"1 45751U 20038X   22166.86668019 -.00000640  00000-0 -24062-4 0  9996","RCS_SIZE":"LARGE","MEAN_MOTION_DDOT":"0.0000000000000","COUNTRY_CODE":"US","MEAN_ANOMALY":"307.6868","MEAN_MOTION":"15.06393820","MEAN_MOTION_DOT":"-0.00000640","APOAPSIS":"548.375","EPHEMERIS_TYPE":"0","SEMIMAJOR_AXIS":"6925.367","TLE_LINE2":"2 45751  53.0554 214.5804 0001650  52.4270 307.6868 15.06393820111077","TIME_SYSTEM":"UTC","SITE":"AFETR","NORAD_CAT_ID":"45751","GP_ID":"206234951","ELEMENT_SET_NO":"999","MEAN_ELEMENT_THEORY":"SGP4","INCLINATION":"53.0554","LAUNCH_DATE":"2020-06-13","BSTAR":"-0.00002406200000","DECAY_DATE":null,"OBJECT_NAME":"STARLINK-1464","CENTER_NAME":"EARTH","REF_FRAME":"TEME","ARG_OF_PERICENTER":"52.4270","CLASSIFICATION_TYPE":"U","RA_OF_ASC_NODE":"214.5804","PERIAPSIS":"546.090","PERIOD":"95.593","OBJECT_TYPE":"PAYLOAD","ECCENTRICITY":"0.00016500","EPOCH":"2022-06-15T20:48:01.168416","REV_AT_EPOCH":"11107","OBJECT_ID":"2020-038X","FILE":"3496999"}];
